start=new Date('2023-03-29T00:00:00.000Z').valueOf();
sats=[{"TLE_LINE1":"1 46154U 20057AP  23087.51502114  .00023818  00000-0  16115-2 0  9991","OBJECT_TYPE":"PAYLOAD","COUNTRY_CODE":"US","MEAN_MOTION_DOT":"0.00023818","TIME_SYSTEM":"UTC","SEMIMAJOR_AXIS":"6925.279","OBJECT_NAME":"STARLINK-1642","MEAN_ANOMALY":"271.3300","ECCENTRICITY":"0.00012570","TLE_LINE2":"2 46154  53.0538 102.2407 0001257  88.7833 271.3300 15.06422690143856","OBJECT_ID":"2020-057AP","REV_AT_EPOCH":"14385","MEAN_MOTION":"15.06422690","PERIAPSIS":"546.274","ARG_OF_PERICENTER":"88.7833","CLASSIFICATION_TYPE":"U","BSTAR":"0.00161150000000","PERIOD":"95.591","FILE":"3873565","RA_OF_ASC_NODE":"102.2407","EPHEMERIS_TYPE":"0","INCLINATION":"53.0538","NORAD_CAT_ID":"46154","SITE":"AFETR","ELEMENT_SET_NO":"999","EPOCH":"2023-03-28T12:21:37.826496","LAUNCH_DATE":"2020-08-18","APOAPSIS":"548.015","GP_ID":"229028747","RCS_SIZE":"LARGE","MEAN_MOTION_DDOT":"0.0000000000000","MEAN_ELEMENT_THEORY":"SGP4","DECAY_DATE":null,"CENTER_NAME":"EARTH","REF_FRAME":"TEME"},{"TLE_LINE2":"2 46155  53.0536  71.5335 0001380 100.6130 259.5014 15.06402556145530","PERIAPSIS":"546.250","MEAN_MOTION":"15.06402556","REV_AT_EPOCH":"14553","OBJECT_ID":"2020-057AQ","SEMIMAJOR_AXIS":"6925.341","TIME_SYSTEM":"UTC","OBJECT_TYPE":"PAYLOAD","COUNTRY_CODE":"US","MEAN_MOTION_DOT":"0.00023995","TLE_LINE1":"1 46155U 20057AQ  23087.67258021  .00023995  00000-0  16242-2 0  9991","ECCENTRICITY":"0.00013800","MEAN_ANOMALY":"259.5014","OBJECT_NAME":"STARLINK-1667","DECAY_DATE":null,"MEAN_ELEMENT_THEORY":"SGP4","MEAN_MOTION_DDOT":"0.0000000000000","RCS_SIZE":"LARGE","APOAPSIS":"548.161","GP_ID":"229063390","LAUNCH_DATE":"2020-08-18","CENTER_NAME":"EARTH","REF_FRAME":"TEME","RA_OF_ASC_NODE":"71.5335","FILE":"3873921","PERIOD":"95.592","BSTAR":"0.00162420000000","CLASSIFICATION_TYPE":"U","ARG_OF_PERICENTER":"100.6130","EPOCH":"2023-03-28T16:08:30.930144","SITE":"AFETR","ELEMENT_SET_NO":"999","INCLINATION":"53.0536","NORAD_CAT_ID":"46155","EPHEMERIS_TYPE":"0"},{"ECCENTRICITY":"0.00014510","OBJECT_NAME":"STARLINK-1545","MEAN_ANOMALY":"267.1214","TIME_SYSTEM":"UTC","MEAN_MOTION_DOT":"0.00013874","COUNTRY_CODE":"US","OBJECT_TYPE":"PAYLOAD","SEMIMAJOR_AXIS":"6925.336","TLE_LINE1":"1 46156U 20057AR  23087.72971348  .00013874  00000-0  94837-3 0  9994","REV_AT_EPOCH":"14527","MEAN_MOTION":"15.06404241","PERIAPSIS":"546.196","OBJECT_ID":"2020-057AR","TLE_LINE2":"2 46156  53.0529  91.2767 0001451  92.9942 267.1214 15.06404241145275","ELEMENT_SET_NO":"999","SITE":"AFETR","EPOCH":"2023-03-28T17:30:47.244672","EPHEMERIS_TYPE":"0","INCLINATION":"53.0529","NORAD_CAT_ID":"46156","FILE":"3873921","PERIOD":"95.592","RA_OF_ASC_NODE":"91.2767","ARG_OF_PERICENTER":"92.9942","CLASSIFICATION_TYPE":"U","BSTAR":"0.00094837000000","CENTER_NAME":"EARTH","REF_FRAME":"TEME","MEAN_MOTION_DDOT":"0.0000000000000","DECAY_DATE":null,"MEAN_ELEMENT_THEORY":"SGP4","LAUNCH_DATE":"2020-08-18","RCS_SIZE":"LARGE","APOAPSIS":"548.205","GP_ID":"229063641"},{"TIME_SYSTEM":"UTC","COUNTRY_CODE":"US","OBJECT_TYPE":"PAYLOAD","MEAN_MOTION_DOT":"0.00026036","SEMIMAJOR_AXIS":"6925.294","TLE_LINE1":"1 46157U 20057AS  23087.91584280  .00026036  00000-0  17595-2 0  9990","ECCENTRICITY":"0.00012750","OBJECT_NAME":"STARLINK-1587","MEAN_ANOMALY":"260.5992","TLE_LINE2":"2 46157  53.0534  70.4409 0001275  99.5141 260.5992 15.06417675144333","REV_AT_EPOCH":"14433","MEAN_MOTION":"15.06417675","PERIAPSIS":"546.276","OBJECT_ID":"2020-057AS","FILE":"3873921","PERIOD":"95.591","RA_OF_ASC_NODE":"70.4409","ARG_OF_PERICENTER":"99.5141","BSTAR":"0.00175950000000","CLASSIFICATION_TYPE":"U","SITE":"AFETR","ELEMENT_SET_NO":"999","EPOCH":"2023-03-28T21:58:48.817920","EPHEMERIS_TYPE":"0","NORAD_CAT_ID":"46157","INCLINATION":"53.0534","MEAN_MOTION_DDOT":"0.0000000000000","DECAY_DATE":null,"MEAN_ELEMENT_THEORY":"SGP4","LAUNCH_DATE":"2020-08-18","RCS_SIZE":"LARGE","APOAPSIS":"548.042","GP_ID":"229064370","REF_FRAME":"TEME","CENTER_NAME":"EARTH"},{"FILE":"3873921","PERIOD":"95.590","RA_OF_ASC_NODE":"70.4602","ARG_OF_PERICENTER":"87.4856","BSTAR":"0.00168150000000","CLASSIFICATION_TYPE":"U","ELEMENT_SET_NO":"999","SITE":"AFETR","EPOCH":"2023-03-28T21:53:30.414912","EPHEMERIS_TYPE":"0","INCLINATION":"53.0541","NORAD_CAT_ID":"46158","MEAN_MOTION_DDOT":"0.0000000000000","DECAY_DATE":null,"MEAN_ELEMENT_THEORY":"SGP4","LAUNCH_DATE":"2020-08-18","RCS_SIZE":"LARGE","GP_ID":"229063140","APOAPSIS":"547.922","REF_FRAME":"TEME","CENTER_NAME":"EARTH","TIME_SYSTEM":"UTC","COUNTRY_CODE":"US","MEAN_MOTION_DOT":"0.00024876","OBJECT_TYPE":"PAYLOAD","SEMIMAJOR_AXIS":"6925.247","TLE_LINE1":"1 46158U 20057AT  23087.91215758  .00024876  00000-0  16815-2 0  9996","ECCENTRICITY":"0.00011700","OBJECT_NAME":"STARLINK-1589","MEAN_ANOMALY":"272.6266","TLE_LINE2":"2 46158  53.0541  70.4602 0001170  87.4856 272.6266 15.06433098145594","REV_AT_EPOCH":"14559","MEAN_MOTION":"15.06433098","PERIAPSIS":"546.302","OBJECT_ID":"2020-057AT"},{"ARG_OF_PERICENTER":"80.6105","BSTAR":"0.00117990000000","CLASSIFICATION_TYPE":"U","PERIOD":"95.591","FILE":"3873921","RA_OF_ASC_NODE":"111.1684","EPHEMERIS_TYPE":"0","NORAD_CAT_ID":"46159","INCLINATION":"53.0527","SITE":"AFETR","ELEMENT_SET_NO":"999","EPOCH":"2023-03-28T18:05:17.030976","LAUNCH_DATE":"2020-08-18","GP_ID":"229062890","APOAPSIS":"548.231","RCS_SIZE":"LARGE","MEAN_MOTION_DDOT":"0.0000000000000","MEAN_ELEMENT_THEORY":"SGP4","DECAY_DATE":null,"REF_FRAME":"TEME","CENTER_NAME":"EARTH","TLE_LINE1":"1 46159U 20057AU  23087.75366934  .00017343  00000-0  11799-2 0  9999","COUNTRY_CODE":"US","OBJECT_TYPE":"PAYLOAD","MEAN_MOTION_DOT":"0.00017343","TIME_SYSTEM":"UTC","SEMIMAJOR_AXIS":"6925.309","OBJECT_NAME":"STARLINK-1595","MEAN_ANOMALY":"279.5056","ECCENTRICITY":"0.00015260","TLE_LINE2":"2 46159  53.0527 111.1684 0001526  80.6105 279.5056 15.06412860145002","OBJECT_ID":"2020-057AU","REV_AT_EPOCH":"14500","MEAN_MOTION":"15.06412860","PERIAPSIS":"546.117"},{"EPOCH":"2023-03-28T17:52:02.421408","SITE":"AFETR","ELEMENT_SET_NO":"999","INCLINATION":"53.0528","NORAD_CAT_ID":"46160","EPHEMERIS_TYPE":"0","RA_OF_ASC_NODE":"91.2107","PERIOD":"95.591","FILE":"3873921","CLASSIFICATION_TYPE":"U","BSTAR":"0.00065362000000","ARG_OF_PERICENTER":"90.5590","REF_FRAME":"TEME","CENTER_NAME":"EARTH","MEAN_ELEMENT_THEORY":"SGP4","DECAY_DATE":null,"MEAN_MOTION_DDOT":"0.0000000000000","GP_ID":"229064142","APOAPSIS":"548.088","RCS_SIZE":"LARGE","LAUNCH_DATE":"2020-08-18","ECCENTRICITY":"0.00013190","MEAN_ANOMALY":"269.5550","OBJECT_NAME":"STARLINK-1598","SEMIMAJOR_AXIS":"6925.309","COUNTRY_CODE":"US","OBJECT_TYPE":"PAYLOAD","MEAN_MOTION_DOT":"0.00009471","TIME_SYSTEM":"UTC","TLE_LINE1":"1 46160U 20057AV  23087.74447247  .00009471  00000-0  65362-3 0  9996","PERIAPSIS":"546.261","MEAN_MOTION":"15.06412826","REV_AT_EPOCH":"14527","OBJECT_ID":"2020-057AV","TLE_LINE2":"2 46160  53.0528  91.2107 0001319  90.5590 269.5550 15.06412826145270"},{"EPOCH":"2023-03-28T17:20:10.423968","ELEMENT_SET_NO":"999","SITE":"AFETR","NORAD_CAT_ID":"46161","INCLINATION":"53.0536","EPHEMERIS_TYPE":"0","RA_OF_ASC_NODE":"91.3110","FILE":"3873921","PERIOD":"95.592","CLASSIFICATION_TYPE":"U","BSTAR":"0.00068498000000","ARG_OF_PERICENTER":"97.2251","CENTER_NAME":"EARTH","REF_FRAME":"TEME","DECAY_DATE":null,"MEAN_ELEMENT_THEORY":"SGP4","MEAN_MOTION_DDOT":"0.0000000000000","RCS_SIZE":"LARGE","GP_ID":"229063870","APOAPSIS":"548.325","LAUNCH_DATE":"2020-08-18","ECCENTRICITY":"0.00016010","MEAN_ANOMALY":"262.8920","OBJECT_NAME":"STARLINK-1600","SEMIMAJOR_AXIS":"6925.351","TIME_SYSTEM":"UTC","MEAN_MOTION_DOT":"0.00009936","COUNTRY_CODE":"US","OBJECT_TYPE":"PAYLOAD","TLE_LINE1":"1 46161U 20057AW  23087.72234287  .00009936  00000-0  68498-3 0  9992","PERIAPSIS":"546.107","MEAN_MOTION":"15.06399275","REV_AT_EPOCH":"14527","OBJECT_ID":"2020-057AW","TLE_LINE2":"2 46161  53.0536  91.3110 0001601  97.2251 262.8920 15.06399275145276"},{"TLE_LINE2":"2 46162  53.0534  91.2911 0001390  93.3718 266.7430 15.06410995145286","PERIAPSIS":"546.217","MEAN_MOTION":"15.06410995","REV_AT_EPOCH":"14528","OBJECT_ID":"2020-057AX","SEMIMAJOR_AXIS":"6925.315","TIME_SYSTEM":"UTC","MEAN_MOTION_DOT":"0.00013667","COUNTRY_CODE":"US","OBJECT_TYPE":"PAYLOAD","TLE_LINE1":"1 46162U 20057AX  23087.72603143  .00013667  00000-0  93436-3 0  9990","ECCENTRICITY":"0.00013900","MEAN_ANOMALY":"266.7430","OBJECT_NAME":"STARLINK-1603","DECAY_DATE":null,"MEAN_ELEMENT_THEORY":"SGP4","MEAN_MOTION_DDOT":"0.0000000000000","RCS_SIZE":"LARGE","APOAPSIS":"548.142","GP_ID":"229062642","LAUNCH_DATE":"2020-08-18","CENTER_NAME":"EARTH","REF_FRAME":"TEME","RA_OF_ASC_NODE":"91.2911","FILE":"3873921","PERIOD":"95.591","BSTAR":"0.00093436000000","CLASSIFICATION_TYPE":"U","ARG_OF_PERICENTER":"93.3718","EPOCH":"2023-03-28T17:25:29.115552","SITE":"AFETR","ELEMENT_SET_NO":"999","NORAD_CAT_ID":"46162","INCLINATION":"53.0534","EPHEMERIS_TYPE":"0"},{"ARG_OF_PERICENTER":"117.6616","CLASSIFICATION_TYPE":"U","BSTAR":"0.00205790000000","PERIOD":"95.590","FILE":"3873921","RA_OF_ASC_NODE":"71.5970","EPHEMERIS_TYPE":"0","INCLINATION":"53.0529","NORAD_CAT_ID":"46163","ELEMENT_SET_NO":"999","SITE":"AFETR","EPOCH":"2023-03-28T15:47:17.983392","LAUNCH_DATE":"2020-08-18","GP_ID":"229063391","APOAPSIS":"548.087","RCS_SIZE":"LARGE","MEAN_MOTION_DDOT":"0.0000000000000","MEAN_ELEMENT_THEORY":"SGP4","DECAY_DATE":null,"REF_FRAME":"TEME","CENTER_NAME":"EARTH","TLE_LINE1":"1 46163U 20057AY  23087.65784703  .00030529  00000-0  20579-2 0  9998","COUNTRY_CODE":"US","MEAN_MOTION_DOT":"0.00030529","OBJECT_TYPE":"PAYLOAD","TIME_SYSTEM":"UTC","SEMIMAJOR_AXIS":"6925.258","OBJECT_NAME":"STARLINK-1610","MEAN_ANOMALY":"242.4514","ECCENTRICITY":"0.00013930","TLE_LINE2":"2 46163  53.0529  71.5970 0001393 117.6616 242.4514 15.06429612144297","OBJECT_ID":"2020-057AY","REV_AT_EPOCH":"14429","MEAN_MOTION":"15.06429612","PERIAPSIS":"546.158"}];
